start=new Date('2021-12-31T00:00:00.000Z').valueOf();
sats=[{"TLE_LINE2":"2 48354  53.0560  30.8781 0001626  77.9977 282.1194 15.06396067 36394","OBJECT_TYPE":"PAYLOAD","SITE":"AFETR","ELEMENT_SET_NO":"999","REF_FRAME":"TEME","RA_OF_ASC_NODE":"30.8781","OBJECT_ID":"2021-038B","OBJECT_NAME":"STARLINK-2674","SEMIMAJOR_AXIS":"6925.361","INCLINATION":"53.0560","CLASSIFICATION_TYPE":"U","MEAN_ELEMENT_THEORY":"SGP4","ECCENTRICITY":"0.00016260","EPHEMERIS_TYPE":"0","RCS_SIZE":"LARGE","REV_AT_EPOCH":"3639","MEAN_MOTION_DOT":"0.00000170","PERIAPSIS":"546.100","BSTAR":"0.00003034800000","APOAPSIS":"548.352","LAUNCH_DATE":"2021-05-04","FILE":"3255239","MEAN_ANOMALY":"282.1194","GP_ID":"192770321","MEAN_MOTION_DDOT":"0.0000000000000","ARG_OF_PERICENTER":"77.9977","NORAD_CAT_ID":"48354","EPOCH":"2021-12-30T12:08:50.454528","TIME_SYSTEM":"UTC","TLE_LINE1":"1 48354U 21038B   21364.50613952  .00000170  00000-0  30348-4 0  9995","DECAY_DATE":null,"MEAN_MOTION":"15.06396067","COUNTRY_CODE":"US","PERIOD":"95.592","CENTER_NAME":"EARTH"},{"MEAN_MOTION":"15.06385082","PERIOD":"95.593","COUNTRY_CODE":"US","CENTER_NAME":"EARTH","DECAY_DATE":null,"TLE_LINE1":"1 48355U 21038C   21364.56880481 -.00002766  00000-0 -16690-3 0  9993","TIME_SYSTEM":"UTC","NORAD_CAT_ID":"48355","EPOCH":"2021-12-30T13:39:04.735584","GP_ID":"192794019","MEAN_MOTION_DDOT":"0.0000000000000","ARG_OF_PERICENTER":"67.4510","FILE":"3255240","MEAN_ANOMALY":"292.6661","APOAPSIS":"548.448","LAUNCH_DATE":"2021-05-04","MEAN_MOTION_DOT":"-0.00002766","PERIAPSIS":"546.071","BSTAR":"-0.00016690000000","RCS_SIZE":"LARGE","REV_AT_EPOCH":"3640","EPHEMERIS_TYPE":"0","MEAN_ELEMENT_THEORY":"SGP4","ECCENTRICITY":"0.00017160","CLASSIFICATION_TYPE":"U","SEMIMAJOR_AXIS":"6925.394","INCLINATION":"53.0562","OBJECT_NAME":"STARLINK-2635","OBJECT_ID":"2021-038C","RA_OF_ASC_NODE":"30.6069","REF_FRAME":"TEME","ELEMENT_SET_NO":"999","TLE_LINE2":"2 48355  53.0562  30.6069 0001716  67.4510 292.6661 15.06385082 36403","OBJECT_TYPE":"PAYLOAD","SITE":"AFETR"},{"APOAPSIS":"548.196","LAUNCH_DATE":"2021-05-04","FILE":"3255239","MEAN_ANOMALY":"272.1583","RCS_SIZE":"LARGE","REV_AT_EPOCH":"3639","PERIAPSIS":"546.297","MEAN_MOTION_DOT":"0.00000007","BSTAR":"0.00001935600000","MEAN_MOTION_DDOT":"0.0000000000000","GP_ID":"192768820","ARG_OF_PERICENTER":"87.9563","NORAD_CAT_ID":"48356","EPOCH":"2021-12-30T11:58:14.032992","MEAN_MOTION":"15.06389101","COUNTRY_CODE":"US","PERIOD":"95.593","CENTER_NAME":"EARTH","TIME_SYSTEM":"UTC","TLE_LINE1":"1 48356U 21038D   21364.49877353  .00000007  00000-0  19356-4 0  9997","DECAY_DATE":null,"OBJECT_TYPE":"PAYLOAD","TLE_LINE2":"2 48356  53.0574  30.9106 0001371  87.9563 272.1583 15.06389101 36394","SITE":"AFETR","OBJECT_ID":"2021-038D","OBJECT_NAME":"STARLINK-2637","REF_FRAME":"TEME","ELEMENT_SET_NO":"999","RA_OF_ASC_NODE":"30.9106","SEMIMAJOR_AXIS":"6925.382","INCLINATION":"53.0574","CLASSIFICATION_TYPE":"U","MEAN_ELEMENT_THEORY":"SGP4","ECCENTRICITY":"0.00013710","EPHEMERIS_TYPE":"0"},{"MEAN_MOTION_DDOT":"0.0000000000000","GP_ID":"192769070","ARG_OF_PERICENTER":"97.3268","NORAD_CAT_ID":"48357","EPOCH":"2021-12-30T11:52:55.217856","MEAN_MOTION":"15.06390518","CENTER_NAME":"EARTH","COUNTRY_CODE":"US","PERIOD":"95.593","TIME_SYSTEM":"UTC","TLE_LINE1":"1 48357U 21038E   21364.49508354 -.00001832  00000-0 -10412-3 0  9992","DECAY_DATE":null,"APOAPSIS":"548.359","LAUNCH_DATE":"2021-05-04","FILE":"3255239","MEAN_ANOMALY":"262.7904","RCS_SIZE":"LARGE","REV_AT_EPOCH":"3639","MEAN_MOTION_DOT":"-0.00001832","PERIAPSIS":"546.126","BSTAR":"-0.00010412000000","SEMIMAJOR_AXIS":"6925.378","INCLINATION":"53.0557","CLASSIFICATION_TYPE":"U","MEAN_ELEMENT_THEORY":"SGP4","ECCENTRICITY":"0.00016120","EPHEMERIS_TYPE":"0","TLE_LINE2":"2 48357  53.0557  30.9251 0001612  97.3268 262.7904 15.06390518 36398","OBJECT_TYPE":"PAYLOAD","SITE":"AFETR","OBJECT_ID":"2021-038E","OBJECT_NAME":"STARLINK-2636","ELEMENT_SET_NO":"999","REF_FRAME":"TEME","RA_OF_ASC_NODE":"30.9251"},{"SITE":"AFETR","TLE_LINE2":"2 48358  53.0546  30.9382 0001274  77.1226 282.9905 15.06394530 36388","OBJECT_TYPE":"PAYLOAD","OBJECT_ID":"2021-038F","OBJECT_NAME":"STARLINK-2624","ELEMENT_SET_NO":"999","REF_FRAME":"TEME","RA_OF_ASC_NODE":"30.9382","INCLINATION":"53.0546","SEMIMAJOR_AXIS":"6925.365","CLASSIFICATION_TYPE":"U","ECCENTRICITY":"0.00012740","MEAN_ELEMENT_THEORY":"SGP4","EPHEMERIS_TYPE":"0","LAUNCH_DATE":"2021-05-04","APOAPSIS":"548.113","MEAN_ANOMALY":"282.9905","FILE":"3255239","REV_AT_EPOCH":"3638","RCS_SIZE":"LARGE","BSTAR":"0.00000355110000","PERIAPSIS":"546.348","MEAN_MOTION_DOT":"-0.00000228","ARG_OF_PERICENTER":"77.1226","MEAN_MOTION_DDOT":"0.0000000000000","GP_ID":"192769822","EPOCH":"2021-12-30T11:47:36.539232","NORAD_CAT_ID":"48358","COUNTRY_CODE":"US","CENTER_NAME":"EARTH","PERIOD":"95.592","MEAN_MOTION":"15.06394530","TLE_LINE1":"1 48358U 21038F   21364.49139513 -.00000228  00000-0  35511-5 0  9996","TIME_SYSTEM":"UTC","DECAY_DATE":null},{"SITE":"AFETR","OBJECT_TYPE":"PAYLOAD","TLE_LINE2":"2 48359  53.0560  29.1740 0001559  73.0283 287.0877 15.06392806 36442","RA_OF_ASC_NODE":"29.1740","REF_FRAME":"TEME","ELEMENT_SET_NO":"999","OBJECT_NAME":"STARLINK-2628","OBJECT_ID":"2021-038G","CLASSIFICATION_TYPE":"U","INCLINATION":"53.0560","SEMIMAJOR_AXIS":"6925.371","EPHEMERIS_TYPE":"0","ECCENTRICITY":"0.00015590","MEAN_ELEMENT_THEORY":"SGP4","BSTAR":"0.00013619000000","PERIAPSIS":"546.156","MEAN_MOTION_DOT":"0.00001747","REV_AT_EPOCH":"3644","RCS_SIZE":"LARGE","MEAN_ANOMALY":"287.0877","FILE":"3255240","LAUNCH_DATE":"2021-05-04","APOAPSIS":"548.315","EPOCH":"2021-12-30T21:15:32.554944","NORAD_CAT_ID":"48359","ARG_OF_PERICENTER":"73.0283","GP_ID":"192793520","MEAN_MOTION_DDOT":"0.0000000000000","DECAY_DATE":null,"TLE_LINE1":"1 48359U 21038G   21364.88579346  .00001747  00000-0  13619-3 0  9991","TIME_SYSTEM":"UTC","CENTER_NAME":"EARTH","COUNTRY_CODE":"US","PERIOD":"95.593","MEAN_MOTION":"15.06392806"},{"APOAPSIS":"548.243","LAUNCH_DATE":"2021-05-04","FILE":"3255240","MEAN_ANOMALY":"289.4879","RCS_SIZE":"LARGE","REV_AT_EPOCH":"3644","MEAN_MOTION_DOT":"0.00005914","PERIAPSIS":"546.204","BSTAR":"0.00041559000000","MEAN_MOTION_DDOT":"0.0000000000000","GP_ID":"192794270","ARG_OF_PERICENTER":"70.6269","NORAD_CAT_ID":"48360","EPOCH":"2021-12-30T21:10:13.853856","MEAN_MOTION":"15.06396758","COUNTRY_CODE":"US","CENTER_NAME":"EARTH","PERIOD":"95.592","TLE_LINE1":"1 48360U 21038H   21364.88210479  .00005914  00000-0  41559-3 0  9996","TIME_SYSTEM":"UTC","DECAY_DATE":null,"OBJECT_TYPE":"PAYLOAD","TLE_LINE2":"2 48360  53.0570  29.1838 0001472  70.6269 289.4879 15.06396758 36442","SITE":"AFETR","OBJECT_ID":"2021-038H","OBJECT_NAME":"STARLINK-2622","ELEMENT_SET_NO":"999","REF_FRAME":"TEME","RA_OF_ASC_NODE":"29.1838","SEMIMAJOR_AXIS":"6925.358","INCLINATION":"53.0570","CLASSIFICATION_TYPE":"U","MEAN_ELEMENT_THEORY":"SGP4","ECCENTRICITY":"0.00014720","EPHEMERIS_TYPE":"0"},{"REV_AT_EPOCH":"3637","RCS_SIZE":"LARGE","BSTAR":"-0.00005611000000","PERIAPSIS":"546.227","MEAN_MOTION_DOT":"-0.00001117","LAUNCH_DATE":"2021-05-04","APOAPSIS":"548.265","MEAN_ANOMALY":"284.9563","FILE":"3255239","TLE_LINE1":"1 48361U 21038J   21364.41399059 -.00001117  00000-0 -56110-4 0  9991","TIME_SYSTEM":"UTC","DECAY_DATE":null,"CENTER_NAME":"EARTH","COUNTRY_CODE":"US","PERIOD":"95.593","MEAN_MOTION":"15.06389420","ARG_OF_PERICENTER":"75.1589","MEAN_MOTION_DDOT":"0.0000000000000","GP_ID":"192769570","EPOCH":"2021-12-30T09:56:08.786976","NORAD_CAT_ID":"48361","REF_FRAME":"TEME","ELEMENT_SET_NO":"999","RA_OF_ASC_NODE":"31.3104","OBJECT_ID":"2021-038J","OBJECT_NAME":"STARLINK-2591","SITE":"AFETR","TLE_LINE2":"2 48361  53.0467  31.3104 0001471  75.1589 284.9563 15.06389420 36373","OBJECT_TYPE":"PAYLOAD","ECCENTRICITY":"0.00014710","MEAN_ELEMENT_THEORY":"SGP4","EPHEMERIS_TYPE":"0","INCLINATION":"53.0467","SEMIMAJOR_AXIS":"6925.381","CLASSIFICATION_TYPE":"U"},{"FILE":"3255240","MEAN_ANOMALY":"286.6497","APOAPSIS":"548.312","LAUNCH_DATE":"2021-05-04","PERIAPSIS":"546.124","MEAN_MOTION_DOT":"0.00000590","BSTAR":"0.00005849400000","RCS_SIZE":"LARGE","REV_AT_EPOCH":"3640","MEAN_MOTION":"15.06398589","COUNTRY_CODE":"US","CENTER_NAME":"EARTH","PERIOD":"95.592","DECAY_DATE":null,"TIME_SYSTEM":"UTC","TLE_LINE1":"1 48362U 21038K   21364.57154233  .00000590  00000-0  58494-4 0  9991","NORAD_CAT_ID":"48362","EPOCH":"2021-12-30T13:43:01.257312","MEAN_MOTION_DDOT":"0.0000000000000","GP_ID":"192795272","ARG_OF_PERICENTER":"73.4665","OBJECT_NAME":"STARLINK-2578","OBJECT_ID":"2021-038K","RA_OF_ASC_NODE":"30.5666","ELEMENT_SET_NO":"999","REF_FRAME":"TEME","TLE_LINE2":"2 48362  53.0602  30.5666 0001580  73.4665 286.6497 15.06398589 36401","OBJECT_TYPE":"PAYLOAD","SITE":"AFETR","EPHEMERIS_TYPE":"0","MEAN_ELEMENT_THEORY":"SGP4","ECCENTRICITY":"0.00015800","CLASSIFICATION_TYPE":"U","SEMIMAJOR_AXIS":"6925.353","INCLINATION":"53.0602"},{"MEAN_ELEMENT_THEORY":"SGP4","ECCENTRICITY":"0.00015750","EPHEMERIS_TYPE":"0","SEMIMAJOR_AXIS":"6925.386","INCLINATION":"53.0564","CLASSIFICATION_TYPE":"U","OBJECT_ID":"2021-038L","OBJECT_NAME":"STARLINK-2626","ELEMENT_SET_NO":"999","REF_FRAME":"TEME","RA_OF_ASC_NODE":"25.4963","OBJECT_TYPE":"PAYLOAD","TLE_LINE2":"2 48363  53.0564  25.4963 0001575  68.4332 291.6825 15.06387848 36475","SITE":"AFETR","MEAN_MOTION":"15.06387848","PERIOD":"95.593","COUNTRY_CODE":"US","CENTER_NAME":"EARTH","TLE_LINE1":"1 48363U 21038L   21364.58954044 -.00000841  00000-0 -37581-4 0  9996","TIME_SYSTEM":"UTC","DECAY_DATE":null,"MEAN_MOTION_DDOT":"0.0000000000000","GP_ID":"192794020","ARG_OF_PERICENTER":"68.4332","NORAD_CAT_ID":"48363","EPOCH":"2021-12-30T14:08:56.294016","APOAPSIS":"548.342","LAUNCH_DATE":"2021-05-04","FILE":"3255240","MEAN_ANOMALY":"291.6825","RCS_SIZE":"LARGE","REV_AT_EPOCH":"3647","PERIAPSIS":"546.160","MEAN_MOTION_DOT":"-0.00000841","BSTAR":"-0.00003758100000"}];
